PERSEUS-M1              
1 40039U 14033AF  26181.81790235  .00001294  00000+0  12172-3 0  9991
2 40039  97.9649 126.1740 0009996 250.1954 109.8189 14.95677159652678
POLYITAN-1              
1 40042U 14033AJ  26182.01632331  .00024693  00000+0  75688-3 0  9999
2 40042  98.0934 209.5896 0008765 103.7335 256.4882 15.33748213655718
TIGRISAT                
1 40043U 14033AK  26182.06202209  .00001881  00000+0  22092-3 0  9997
2 40043  97.7848 331.7571 0049817  30.6226 329.7880 14.85211339647686
AEROCUBE 6A             
1 40045U 14033AM  26182.18295549  .00006042  00000+0  50625-3 0  9998
2 40045  97.7226 348.9843 0037881 329.2226  30.6775 14.98227358648713
AEROCUBE 6B             
1 40046U 14033AN  26182.03820773  .00005767  00000+0  46548-3 0  9998
2 40046  97.7224 348.6626 0037764 320.5407  39.3066 14.99688243648830
CANX-4                  
1 40055U 14034C   26182.13474294  .00001044  00000+0  14105-3 0  9991
2 40055  98.3104  57.9588 0012110 332.0685  27.9875 14.81290098646595
CANX-5                  
1 40056U 14034D   26182.13301356  .00001045  00000+0  14110-3 0  9997
2 40056  98.3105  58.0014 0012115 332.2670  27.7894 14.81307390637407
UKUBE-1                 
1 40074U 14037F   26181.98446889  .00008844  00000+0  49444-3 0  9995
2 40074  98.4232 186.7078 0003194 110.8073 249.3498 15.13760861650647
BRITE-PL2 (HEWELIUSZ)   
1 40119U 14049B   26182.09754052  .00001766  00000+0  16817-3 0  9999
2 40119  97.9111 294.2059 0015147  65.9668 294.3135 14.94644692643520
AEROCUBE 5C             
1 40965U 15058B   26181.44707040  .00002025  00000+0  18614-3 0  9998
2 40965  64.7655 221.3382 0131416  58.0990 303.2827 14.91505798367636
AEROCUBE 7              
1 40966U 15058C   26182.14088405  .00004232  00000+0  33996-3 0  9996
2 40966  64.7599 201.1068 0121152  56.1912 305.0667 14.95809871368041
FOX-1A (AO-85)          
1 40967U 15058D   26181.76724953  .00002040  00000+0  18980-3 0  9990
2 40967  64.7740 236.7799 0131307  51.3115 309.9655 14.91024498115590
SINOD-D 1               
1 40968U 15058E   26181.51551323  .00003198  00000+0  26012-3 0  9993
2 40968  64.7731 217.1713 0119954  47.8242 313.2983 14.95981461118653
SNAP-3 ALICE            
1 40970U 15058G   26182.00530078  .00160671  00000+0  16626-2 0  9994
2 40970  64.7501  56.0494 0023932   1.3361 358.7846 15.63615717119044
LMRST-SAT               
1 40971U 15058H   26181.52476366  .00001923  00000+0  18094-3 0  9996
2 40971  64.7747 233.8969 0132886  53.4236 307.9018 14.90640261115546
SNAP-3 EDDIE            
1 40972U 15058J   26181.60100853  .00141841  00000+0  14082-2 0  9997
2 40972  64.7412  48.0788 0024773   5.0851 355.0544 15.64697747121124
PROPCUBE 3              
1 40973U 15058K   26181.52755621  .00002853  00000+0  24135-3 0  9998
2 40973  64.7666 210.8535 0124830  54.6546 306.6159 14.94323629116799
BISONSAT                
1 40974U 15058L   26182.14687735  .00020210  00000+0  95517-3 0  9997
2 40974  64.7579 128.4987 0080659  41.5256 319.1958 15.16564131117732
SNAP-3 JIMI             
1 40975U 15058M   26182.10153980  .00007987  00000+0  54214-3 0  9999
2 40975  64.7628 175.7433 0106942  49.7900 311.2515 15.02439282116317
PROPCUBE 1 (FLORA)      
1 40976U 15058N   26181.62623447  .00001815  00000+0  17839-3 0  9992
2 40976  64.7744 253.5838 0131511  55.6868 305.6608 14.89274373118268
SINOD-D 3               
1 40977U 15058P   26181.49443094  .00002720  00000+0  23487-3 0  9998
2 40977  64.7711 234.2631 0120034  52.8555 308.3450 14.94086768116741
HORYU-4                 
1 41340U 16012D   26182.11619459  .03107806 -38471-5  12696-2 0  9997
2 41340  30.9802 335.3658 0009826 346.1695  13.8704 16.22032858573058
RAVAN                   
1 41849U 16067B   26182.13348233  .00076979  00000+0  10967-2 0  9994
2 41849  97.9870  73.3297 0002065 331.4556  28.6583 15.56066980529867
CELTEE 1                
1 41850U 16067C   26181.57303351  .00005447  00000+0  25791-3 0  9999
2 41850  98.0655  49.0530 0001675 127.0144 233.1243 15.19809479527917
OPTICUBE 04             
1 41851U 16067D   26182.13058360  .00003073  00000+0  19440-3 0  9997
2 41851  98.0684  35.1411 0016945  72.4057 287.9020 15.09721395527274
AEROCUBE 8D             
1 41852U 16067E   26182.13631529  .00010058  00000+0  41097-3 0  9996
2 41852  98.0661  53.3690 0005026  90.4991 269.6821 15.24592466528196
AEROCUBE 8C             
1 41853U 16067F   26181.17467180  .00007002  00000+0  28522-3 0  9993
2 41853  98.0539  49.5454 0005749  32.4331 327.7257 15.24825427528041
CORVUS BC2              
1 42846U 17042X   26181.41407017  .00002906  00000+0  20105-3 0  9997
2 42846  97.4068 342.2504 0014301  69.6054 290.6709 15.06373686489053
CORVUS BC1              
1 42847U 17042Y   26182.00499569  .00004247  00000+0  29071-3 0  9998
2 42847  97.4105 343.6415 0012658  46.1860 314.0412 15.06544991489174
MAKERSAT 0              
1 43016U 17073D   26181.63250687  .00017054  00000+0  45771-3 0  9990
2 43016  97.4604  64.2588 0104880 224.3337 134.9472 15.32524682468527
